{
  "type": "FeatureCollection",
  "features": [
    {
      "type": "Feature",
      "properties": {
        "norad_id": 32105,
        "name": "FENGYUN 1C DEB",
        "group": "fengyun-1c-debris",
        "lat": -16.746362645840943,
        "lon": 174.2492161448333,
        "alt_km": 1375.3193723662016,
        "timestamp": "2025-12-27T22:26:48.888288+00:00",
        "meta_object_name": "FENGYUN 1C DEB",
        "meta_object_id": "1999-025CQX",
        "meta_epoch": "2025-12-27T05:22:12.577152",
        "meta_mean_motion": 13.40335802,
        "meta_eccentricity": 0.039541,
        "meta_inclination": 103.4644,
        "meta_ra_of_asc_node": 357.4388,
        "meta_arg_of_pericenter": 45.0135,
        "meta_mean_anomaly": 318.2321,
        "meta_ephemeris_type": 0,
        "meta_classification_type": "U",
        "meta_norad_cat_id": 32105,
        "meta_element_set_no": 999,
        "meta_rev_at_epoch": 59905,
        "meta_bstar": 0.0030463,
        "meta_mean_motion_dot": 2.568e-05,
        "meta_mean_motion_ddot": 0,
        "tle_line1": "1 32105U 99025CQX 25361.22375668  .00002568  00000+0  30463-2 0  9990",
        "tle_line2": "2 32105 103.4644 357.4388 0395410  45.0135 318.2321 13.40335802599050"
      },
      "geometry": {
        "type": "Point",
        "coordinates": [
          174.2492161448333,
          -16.746362645840943
        ]
      }
    },
    {
      "type": "Feature",
      "properties": {
        "norad_id": 32106,
        "name": "FENGYUN 1C DEB",
        "group": "fengyun-1c-debris",
        "lat": -9.981948023385838,
        "lon": 155.94808790167693,
        "alt_km": 883.3206927310002,
        "timestamp": "2025-12-27T22:26:48.888298+00:00",
        "meta_object_name": "FENGYUN 1C DEB",
        "meta_object_id": "1999-025CQY",
        "meta_epoch": "2025-12-27T04:44:07.488960",
        "meta_mean_motion": 14.27300043,
        "meta_eccentricity": 0.01104184,
        "meta_inclination": 101.4635,
        "meta_ra_of_asc_node": 337.0299,
        "meta_arg_of_pericenter": 4.6072,
        "meta_mean_anomaly": 355.6089,
        "meta_ephemeris_type": 0,
        "meta_classification_type": "U",
        "meta_norad_cat_id": 32106,
        "meta_element_set_no": 999,
        "meta_rev_at_epoch": 69598,
        "meta_bstar": 0.0052715753,
        "meta_mean_motion_dot": 0.00013728,
        "meta_mean_motion_ddot": 0,
        "tle_line1": "1 32106U 99025CQY 25361.19730890  .00013728  00000+0  52716-2 0  9994",
        "tle_line2": "2 32106 101.4635 337.0299 0110418   4.6072 355.6089 14.27300043695988"
      },
      "geometry": {
        "type": "Point",
        "coordinates": [
          155.94808790167693,
          -9.981948023385838
        ]
      }
    },
    {
      "type": "Feature",
      "properties": {
        "norad_id": 32109,
        "name": "FENGYUN 1C DEB",
        "group": "fengyun-1c-debris",
        "lat": -8.105169384458783,
        "lon": -117.79106265418967,
        "alt_km": 766.412621851754,
        "timestamp": "2025-12-27T22:26:48.888307+00:00",
        "meta_object_name": "FENGYUN 1C DEB",
        "meta_object_id": "1999-025CRB",
        "meta_epoch": "2025-12-22T21:54:44.575488",
        "meta_mean_motion": 14.33976388,
        "meta_eccentricity": 0.0205156,
        "meta_inclination": 98.359,
        "meta_ra_of_asc_node": 236.1509,
        "meta_arg_of_pericenter": 281.9409,
        "meta_mean_anomaly": 75.8843,
        "meta_ephemeris_type": 0,
        "meta_classification_type": "U",
        "meta_norad_cat_id": 32109,
        "meta_element_set_no": 999,
        "meta_rev_at_epoch": 65034,
        "meta_bstar": 0.00054652989,
        "meta_mean_motion_dot": 1.881e-05,
        "meta_mean_motion_ddot": 0,
        "tle_line1": "1 32109U 99025CRB 25356.91301592  .00001881  00000+0  54653-3 0  9994",
        "tle_line2": "2 32109  98.3590 236.1509 0205156 281.9409  75.8843 14.33976388650344"
      },
      "geometry": {
        "type": "Point",
        "coordinates": [
          -117.79106265418967,
          -8.105169384458783
        ]
      }
    },
    {
      "type": "Feature",
      "properties": {
        "norad_id": 32110,
        "name": "FENGYUN 1C DEB",
        "group": "fengyun-1c-debris",
        "lat": 76.25027793315678,
        "lon": 35.98991708077079,
        "alt_km": 805.2896562892902,
        "timestamp": "2025-12-27T22:26:48.888317+00:00",
        "meta_object_name": "FENGYUN 1C DEB",
        "meta_object_id": "1999-025CRC",
        "meta_epoch": "2025-12-22T23:22:37.139808",
        "meta_mean_motion": 14.28961563,
        "meta_eccentricity": 0.00335496,
        "meta_inclination": 99.5437,
        "meta_ra_of_asc_node": 167.13,
        "meta_arg_of_pericenter": 337.3668,
        "meta_mean_anomaly": 174.1359,
        "meta_ephemeris_type": 0,
        "meta_classification_type": "U",
        "meta_norad_cat_id": 32110,
        "meta_element_set_no": 999,
        "meta_rev_at_epoch": 64534,
        "meta_bstar": 0.0014667226,
        "meta_mean_motion_dot": 3.68e-05,
        "meta_mean_motion_ddot": 0,
        "tle_line1": "1 32110U 99025CRC 25356.97404097  .00003680  00000+0  14667-2 0  9995",
        "tle_line2": "2 32110  99.5437 167.1300 0033549 337.3668 174.1359 14.28961563645341"
      },
      "geometry": {
        "type": "Point",
        "coordinates": [
          35.98991708077079,
          76.25027793315678
        ]
      }
    },
    {
      "type": "Feature",
      "properties": {
        "norad_id": 32111,
        "name": "FENGYUN 1C DEB",
        "group": "fengyun-1c-debris",
        "lat": -61.24710915667151,
        "lon": 165.54348489405476,
        "alt_km": 781.3537174730391,
        "timestamp": "2025-12-27T22:26:48.888327+00:00",
        "meta_object_name": "FENGYUN 1C DEB",
        "meta_object_id": "1999-025CRD",
        "meta_epoch": "2025-12-27T06:19:27.500736",
        "meta_mean_motion": 14.31561773,
        "meta_eccentricity": 0.012047,
        "meta_inclination": 98.4439,
        "meta_ra_of_asc_node": 0.5978,
        "meta_arg_of_pericenter": 161.8494,
        "meta_mean_anomaly": 219.0488,
        "meta_ephemeris_type": 0,
        "meta_classification_type": "U",
        "meta_norad_cat_id": 32111,
        "meta_element_set_no": 999,
        "meta_rev_at_epoch": 96239,
        "meta_bstar": 0.00019991,
        "meta_mean_motion_dot": 5.33e-06,
        "meta_mean_motion_ddot": 0,
        "tle_line1": "1 32111U 99025CRD 25361.26351274  .00000533  00000+0  19991-3 0  9992",
        "tle_line2": "2 32111  98.4439   0.5978 0120470 161.8494 219.0488 14.31561773962392"
      },
      "geometry": {
        "type": "Point",
        "coordinates": [
          165.54348489405476,
          -61.24710915667151
        ]
      }
    },
    {
      "type": "Feature",
      "properties": {
        "norad_id": 32113,
        "name": "FENGYUN 1C DEB",
        "group": "fengyun-1c-debris",
        "lat": -80.1190340731353,
        "lon": 150.5382330891526,
        "alt_km": 888.4078192862517,
        "timestamp": "2025-12-27T22:26:48.888337+00:00",
        "meta_object_name": "FENGYUN 1C DEB",
        "meta_object_id": "1999-025CRF",
        "meta_epoch": "2025-12-22T20:39:08.544384",
        "meta_mean_motion": 13.9458115,
        "meta_eccentricity": 0.0238461,
        "meta_inclination": 99.0255,
        "meta_ra_of_asc_node": 31.4218,
        "meta_arg_of_pericenter": 198.943,
        "meta_mean_anomaly": 160.2746,
        "meta_ephemeris_type": 0,
        "meta_classification_type": "U",
        "meta_norad_cat_id": 32113,
        "meta_element_set_no": 999,
        "meta_rev_at_epoch": 63027,
        "meta_bstar": 0.0006327,
        "meta_mean_motion_dot": 1.027e-05,
        "meta_mean_motion_ddot": 0,
        "tle_line1": "1 32113U 99025CRF 25356.86051556  .00001027  00000+0  63270-3 0  9992",
        "tle_line2": "2 32113  99.0255  31.4218 0238461 198.9430 160.2746 13.94581150630270"
      },
      "geometry": {
        "type": "Point",
        "coordinates": [
          150.5382330891526,
          -80.1190340731353
        ]
      }
    },
    {
      "type": "Feature",
      "properties": {
        "norad_id": 32114,
        "name": "FENGYUN 1C DEB",
        "group": "fengyun-1c-debris",
        "lat": -45.09715874094581,
        "lon": -67.66690842894039,
        "alt_km": 633.7936961132691,
        "timestamp": "2025-12-27T22:26:48.888347+00:00",
        "meta_object_name": "FENGYUN 1C DEB",
        "meta_object_id": "1999-025CRG",
        "meta_epoch": "2025-12-06T13:19:21.641376",
        "meta_mean_motion": 14.76489439,
        "meta_eccentricity": 0.00447682,
        "meta_inclination": 99.9287,
        "meta_ra_of_asc_node": 96.1919,
        "meta_arg_of_pericenter": 3.5911,
        "meta_mean_anomaly": 356.5605,
        "meta_ephemeris_type": 0,
        "meta_classification_type": "U",
        "meta_norad_cat_id": 32114,
        "meta_element_set_no": 999,
        "meta_rev_at_epoch": 65638,
        "meta_bstar": 0.0040574802,
        "meta_mean_motion_dot": 0.0002877,
        "meta_mean_motion_ddot": 0,
        "tle_line1": "1 32114U 99025CRG 25340.55511159  .00028770  00000+0  40575-2 0  9998",
        "tle_line2": "2 32114  99.9287  96.1919 0044768   3.5911 356.5605 14.76489439656383"
      },
      "geometry": {
        "type": "Point",
        "coordinates": [
          -67.66690842894039,
          -45.09715874094581
        ]
      }
    }
  ]
}